[{"name":"ORBCOMM FM06","l1":"1 25118U 97084G   26183.20816748  .00001457  00000+0  43093-3 0  9999","l2":"2 25118  45.0147 340.3994 0000378 185.3995 344.6234 14.47601217496569","cat":"communications"},{"name":"ORBCOMM FM04","l1":"1 25159U 98007C   26182.95618983  .00000783  00000+0  31325-3 0  9998","l2":"2 25159 107.9627 199.8166 0041740 299.4550  60.2429 14.35766640478718","cat":"communications"},{"name":"ORBCOMM FM19","l1":"1 25415U 98046C   26183.71761626  .00000980  00000+0  35668-3 0  9997","l2":"2 25415  44.9922 169.7375 0003984 349.2897 180.2427 14.39521404459019","cat":"communications"},{"name":"ORBCOMM FM20","l1":"1 25416U 98046D   26183.71316867  .00000639  00000+0  25565-3 0  9997","l2":"2 25416  44.9921 177.8526 0002322 302.7940  57.2684 14.38084802459029","cat":"communications"},{"name":"ORBCOMM FM27","l1":"1 25481U 98053G   26183.59827763  .00000889  00000+0  33014-3 0  9990","l2":"2 25481  45.0049 262.1555 0002187 248.6088 111.4527 14.39169425452459","cat":"communications"},{"name":"ORBCOMM FM32","l1":"1 25982U 99065C   26183.79234289  .00000861  00000+0  33427-3 0  9995","l2":"2 25982  45.0150  99.3728 0004550 127.3798 232.7465 14.37152971389337","cat":"communications"},{"name":"ORBCOMM FM109","l1":"1 40086U 14040A   26183.57640617  .00000528  00000+0  14792-3 0  9993","l2":"2 40086  47.0041  18.7274 0001883 286.7342  73.3337 14.58862384636591","cat":"communications"},{"name":"ORBCOMM FM110","l1":"1 41182U 15081D   26183.65009341  .00000812  00000+0  20786-3 0  9995","l2":"2 41182  47.0024 288.3297 0002908 165.1476 194.9496 14.58904840559883","cat":"communications"},{"name":"ORBCOMM FM118","l1":"1 41183U 15081E   26183.68441105  .00000512  00000+0  14438-3 0  9991","l2":"2 41183  47.0044 288.5019 0002325 120.0447 240.0669 14.58894954559992","cat":"communications"},{"name":"ORBCOMM FM112","l1":"1 41184U 15081F   26183.75716073  .00000548  00000+0  15195-3 0  9999","l2":"2 41184  46.9971 196.6196 0004130 278.6785  81.3632 14.58921598561226","cat":"communications"},{"name":"ORBCOMM FM113","l1":"1 41185U 15081G   26183.73429860  .00000358  00000+0  11196-3 0  9999","l2":"2 41185  46.9987 197.1118 0002625 277.7758  82.2829 14.58871935561206","cat":"communications"},{"name":"ORBCOMM FM108","l1":"1 41187U 15081J   26183.76500007  .00000739  00000+0  19240-3 0  9998","l2":"2 41187  47.0046 108.5441 0003134 278.1337  81.9193 14.58894250562357","cat":"communications"},{"name":"ORBCOMM FM117","l1":"1 41188U 15081K   26183.79911375  .00000651  00000+0  17401-3 0  9996","l2":"2 41188  47.0010 107.0129 0003573 282.7851  77.2635 14.58881463562402","cat":"communications"},{"name":"ORBCOMM FM116","l1":"1 41189U 15081L   26182.47813415  .00000304  00000+0  10040-3 0  9994","l2":"2 41189  47.0005 203.0491 0000940 184.3505 175.7373 14.58897315561027","cat":"communications"}]